[{"OBJECT_NAME":"COSMOS 2408","OBJECT_ID":"2004-037A","EPOCH":"2026-04-01T05:25:02.127648","MEAN_MOTION":12.45677349,"ECCENTRICITY":0.0017103,"INCLINATION":82.4904,"RA_OF_ASC_NODE":14.0738,"ARG_OF_PERICENTER":76.9135,"MEAN_ANOMALY":283.3854,"EPHEMERIS_TYPE":0,"CLASSIFICATION_TYPE":"U","NORAD_CAT_ID":28419,"ELEMENT_SET_NO":999,"REV_AT_EPOCH":97832,"BSTAR":0.00011985,"MEAN_MOTION_DOT":2.7e-7,"MEAN_MOTION_DDOT":0},{"OBJECT_NAME":"COSMOS 2409","OBJECT_ID":"2004-037B","EPOCH":"2026-04-01T03:56:03.954624","MEAN_MOTION":12.45321388,"ECCENTRICITY":0.0014696,"INCLINATION":82.4902,"RA_OF_ASC_NODE":17.3047,"ARG_OF_PERICENTER":87.3208,"MEAN_ANOMALY":272.9555,"EPHEMERIS_TYPE":0,"CLASSIFICATION_TYPE":"U","NORAD_CAT_ID":28420,"ELEMENT_SET_NO":999,"REV_AT_EPOCH":97796,"BSTAR":-0.00032386,"MEAN_MOTION_DOT":-3.6e-7,"MEAN_MOTION_DDOT":0},{"OBJECT_NAME":"AMC-15","OBJECT_ID":"2004-041A","EPOCH":"2026-04-01T05:09:36.672192","MEAN_MOTION":1.00272066,"ECCENTRICITY":0.0002232,"INCLINATION":0.0534,"RA_OF_ASC_NODE":42.3098,"ARG_OF_PERICENTER":320.5038,"MEAN_ANOMALY":159.114,"EPHEMERIS_TYPE":0,"CLASSIFICATION_TYPE":"U","NORAD_CAT_ID":28446,"ELEMENT_SET_NO":999,"REV_AT_EPOCH":7853,"BSTAR":0,"MEAN_MOTION_DOT":-9.9e-7,"MEAN_MOTION_DDOT":0},{"OBJECT_NAME":"JB-3 3 (ZY 2C)","OBJECT_ID":"2004-044A","EPOCH":"2026-04-01T04:33:33.799392","MEAN_MOTION":15.18757394,"ECCENTRICITY":0.0034991,"INCLINATION":97.2656,"RA_OF_ASC_NODE":247.6677,"ARG_OF_PERICENTER":129.0687,"MEAN_ANOMALY":231.367,"EPHEMERIS_TYPE":0,"CLASSIFICATION_TYPE":"U","NORAD_CAT_ID":28470,"ELEMENT_SET_NO":999,"REV_AT_EPOCH":17609,"BSTAR":0.00027537,"MEAN_MOTION_DOT":5.748e-5,"MEAN_MOTION_DDOT":0},{"OBJECT_NAME":"NAVSTAR 56 (USA 180)","OBJECT_ID":"2004-045A","EPOCH":"2026-03-31T07:44:51.692928","MEAN_MOTION":2.00574746,"ECCENTRICITY":0.0170415,"INCLINATION":55.1797,"RA_OF_ASC_NODE":328.0336,"ARG_OF_PERICENTER":313.8624,"MEAN_ANOMALY":264.009,"EPHEMERIS_TYPE":0,"CLASSIFICATION_TYPE":"U","NORAD_CAT_ID":28474,"ELEMENT_SET_NO":999,"REV_AT_EPOCH":15686,"BSTAR":0,"MEAN_MOTION_DOT":-8.0e-7,"MEAN_MOTION_DDOT":0},{"OBJECT_NAME":"SWIFT","OBJECT_ID":"2004-047A","EPOCH":"2026-04-01T01:11:49.998336","MEAN_MOTION":15.61399103,"ECCENTRICITY":0.0003032,"INCLINATION":20.5541,"RA_OF_ASC_NODE":56.772,"ARG_OF_PERICENTER":313.8301,"MEAN_ANOMALY":46.1893,"EPHEMERIS_TYPE":0,"CLASSIFICATION_TYPE":"U","NORAD_CAT_ID":28485,"ELEMENT_SET_NO":999,"REV_AT_EPOCH":17476,"BSTAR":0.00063734,"MEAN_MOTION_DOT":0.00057966,"MEAN_MOTION_DDOT":0}