COSMOS 2408             
1 28419U 04037A   26091.22571907  .00000027  00000+0  11985-3 0  9994
2 28419  82.4904  14.0738 0017103  76.9135 283.3854 12.45677349978329
COSMOS 2409             
1 28420U 04037B   26091.16393466 -.00000036  00000+0 -32386-3 0  9991
2 28420  82.4902  17.3047 0014696  87.3208 272.9555 12.45321388977969
AMC-15                  
1 28446U 04041A   26091.21500778 -.00000099  00000+0  00000+0 0  9998
2 28446   0.0534  42.3098 0002232 320.5038 159.1140  1.00272066 78532
JB-3 3 (ZY 2C)          
1 28470U 04044A   26091.18997453  .00005748  00000+0  27537-3 0  9997
2 28470  97.2656 247.6677 0034991 129.0687 231.3670 15.18757394176091
NAVSTAR 56 (USA 180)    
1 28474U 04045A   26090.32282052 -.00000080  00000+0  00000+0 0  9996
2 28474  55.1797 328.0336 0170415 313.8624 264.0090  2.00574746156863
SWIFT                   
1 28485U 04047A   26091.04988424  .00057966  00000+0  63734-3 0  9997
2 28485  20.5541  56.7720 0003032 313.8301  46.1893 15.61399103174764
